STARLINK-36327          
1 67738U 26026T   26064.25003472 -.01997775  00000+0 -19906-1 0  9990
2 67738  97.2839 118.7441 0001485  52.9513 327.6327 15.68737686  4607
STARLINK-36329          
1 67739U 26026U   26064.25003472 -.02005554  00000+0 -19147-1 0  9994
2 67739  97.2838 118.7649 0001703  55.2782  23.6890 15.69779190  4609
STARLINK-36737          
1 67740U 26026V   26064.25003472 -.02003029  00000+0 -19835-1 0  9995
2 67740  97.2839 118.7475 0001515  55.4689 335.4544 15.68896525  4609
STARLINK-36740          
1 67741U 26026W   26064.25003472 -.01993703  00000+0 -23462-1 0  9993
2 67741  97.2837 118.7402 0001406  52.1006 316.4567 15.64630392  4602
STARLINK-36693          
1 67742U 26026X   26064.25003472 -.01992479  00000+0 -22831-1 0  9992
2 67742  97.2839 118.7345 0001337  58.1225 297.1893 15.65295310  4732
STARLINK-36717          
1 67743U 26026Y   26064.25003472 -.02005348  00000+0 -21112-1 0  9995
2 67743  97.2841 118.7509 0001507  57.9546 339.1554 15.67410083  4739
STARLINK-36692          
1 67744U 26026Z   26064.25003472 -.01992283  00000+0 -22046-1 0  9995
2 67744  97.2840 118.7420 0001412  57.4515 317.4053 15.66161222  4603
2026-027A               
1 67746U 26027A   26064.28594618  .00011368  00000+0  56764-3 0  9997
2 67746  97.4902 193.3458 0009854 209.5874 150.4803 15.17609261  3199
2026-027B               
1 67747U 26027B   26064.28454769  .00011300  00000+0  56264-3 0  9991
2 67747  97.4898 193.3461 0009971 212.1959 147.8667 15.17709523  3192
2026-027C               
1 67748U 26027C   26064.28318414  .00008213  00000+0  40960-3 0  9993
2 67748  97.4908 193.3512 0010336 214.8533 145.2024 15.17744671  3198
2026-027D               
1 67749U 26027D   26064.28026296  .00013493  00000+0  66442-3 0  9997
2 67749  97.4904 193.3540 0009986 219.9418 140.1082 15.18054694  3146
2026-027E               
1 67750U 26027E   26064.28033908  .00011408  00000+0  56312-3 0  9996
2 67750  97.4915 193.3570 0009197 220.7490 139.3057 15.18016619  3199
2026-027F               
1 67751U 26027F   26064.27833252  .00018405  00000+0  89809-3 0  9997
2 67751  97.4914 193.3600 0010359 221.5482 138.4965 15.18298703  3199
2026-027G               
1 67752U 26027G   26063.22449260  .00016447  00000+0  80953-3 0  9999
2 67752  97.4907 192.3130 0009405 225.8320 134.2142 15.18028016  3039
JIELONG-3 R/B           
1 67753U 26027H   26064.31132041  .00439595  23772-5  64781-3 0  9998
2 67753  97.5128 194.9848 0228082 260.9278  96.6115 15.71418670  3293
JIELONG-3 DEB           
1 67754U 26027J   26064.30112046  .01958762  24498-5  12562-2 0  9999
2 67754  97.5042 195.3030 0145913 260.6585  97.8169 15.98266829  3250
